*******************************************************************************
 Revised: April 12, 2021         Saturn Barycenter                            6
 
 Dynamical point:
 ---------------
 The location of the center-of-mass of the Saturn system. The point about which
 Saturn and its satellites revolve. See 699 for Saturn center.
*******************************************************************************


*******************************************************************************
Ephemeris / WWW_USER Mon Jan  5 13:48:05 2026 Pasadena, USA      / Horizons
*******************************************************************************
Target body name: Saturn Barycenter (6)           {source: DE441}
Center body name: Solar System Barycenter (0)     {source: DE441}
Center-site name: BODY CENTER
*******************************************************************************
Start time      : A.D. 2026-Jan-05 00:00:00.0000 TDB
Stop  time      : A.D. 2026-Apr-03 00:00:00.0000 TDB
Step-size       : 1440 minutes
*******************************************************************************
Center geodetic : 0.0, 0.0, 0.0                   {E-lon(deg),Lat(deg),Alt(km)}
Center cylindric: 0.0, 0.0, 0.0                   {E-lon(deg),Dxy(km),Dz(km)}
Center radii    : (undefined)
Output units    : KM-S
Calendar mode   : Mixed Julian/Gregorian
Output type     : GEOMETRIC cartesian states
Output format   : 3 (position, velocity, LT, range, range-rate)
Reference frame : Ecliptic of J2000.0
*******************************************************************************
JDTDB
   X     Y     Z
   VX    VY    VZ
   LT    RG    RR
*******************************************************************************
$$SOE
2461045.500000000 = A.D. 2026-Jan-05 00:00:00.0000 TDB 
 X = 1.421542741242918E+09 Y = 4.105920109561522E+07 Z =-5.731353123121601E+07
 VX=-8.119935758663011E-01 VY= 9.634663857090288E+00 VZ=-1.352250345959494E-01
 LT= 4.747584457344486E+03 RG= 1.423290014029899E+09 RR=-5.276097922881673E-01
2461046.500000000 = A.D. 2026-Jan-06 00:00:00.0000 TDB 
 X = 1.421472340807499E+09 Y = 4.189162887409476E+07 Z =-5.732520482838686E+07
 VX=-8.176461770985072E-01 VY= 9.634497127344495E+00 VZ=-1.349971107288126E-01
 LT= 4.747432400504602E+03 RG= 1.423244428536115E+09 RR=-5.276099418944230E-01
2461047.500000000 = A.D. 2026-Jan-07 00:00:00.0000 TDB 
 X = 1.421401451975906E+09 Y = 4.272404210340416E+07 Z =-5.733685872997962E+07
 VX=-8.232990425395199E-01 VY= 9.634327070647458E+00 VZ=-1.347691184474291E-01
 LT= 4.747280343646977E+03 RG= 1.423198843037012E+09 RR=-5.276099153957972E-01
2461048.500000000 = A.D. 2026-Jan-08 00:00:00.0000 TDB 
 X = 1.421330074725394E+09 Y = 4.355644049606978E+07 Z =-5.734849293008616E+07
 VX=-8.289521702641945E-01 VY= 9.634153686420401E+00 VZ=-1.345410578182440E-01
 LT= 4.747128286822370E+03 RG= 1.423153257547807E+09 RR=-5.276097127610339E-01
2461049.500000000 = A.D. 2026-Jan-09 00:00:00.0000 TDB 
 X = 1.421258209033386E+09 Y = 4.438882376456810E+07 Z =-5.736010742280410E+07
 VX=-8.346055583465363E-01 VY= 9.633976974085616E+00 VZ=-1.343129289077516E-01
 LT= 4.746976230081547E+03 RG= 1.423107672083720E+09 RR=-5.276093339589011E-01
2461050.500000000 = A.D. 2026-Jan-10 00:00:00.0000 TDB 
 X = 1.421185854877470E+09 Y = 4.522119162132566E+07 Z =-5.737170220223683E+07
 VX=-8.402592048597003E-01 VY= 9.633796933066465E+00 VZ=-1.340847317824982E-01
 LT= 4.746824173475285E+03 RG= 1.423062086659974E+09 RR=-5.276087789581921E-01
2461051.500000000 = A.D. 2026-Jan-11 00:00:00.0000 TDB 
 X = 1.421113012235399E+09 Y = 4.605354377871929E+07 Z =-5.738327726249345E+07
 VX=-8.459131078759886E-01 VY= 9.633613562787378E+00 VZ=-1.338564665090827E-01
 LT= 4.746672117054366E+03 RG= 1.423016501291792E+09 RR=-5.276080477277204E-01
2461052.500000000 = A.D. 2026-Jan-12 00:00:00.0000 TDB 
 X = 1.421039681085097E+09 Y = 4.688587994907609E+07 Z =-5.739483259768885E+07
 VX=-8.515672654668500E-01 VY= 9.633426862673854E+00 VZ=-1.336281331541556E-01
 LT= 4.746520060869587E+03 RG= 1.422970915994403E+09 RR=-5.276071402363210E-01
2461053.500000000 = A.D. 2026-Jan-13 00:00:00.0000 TDB 
 X = 1.420965861404650E+09 Y = 4.771819984467359E+07 Z =-5.740636820194367E+07
 VX=-8.572216757028759E-01 VY= 9.633236832152466E+00 VZ=-1.333997317844178E-01
 LT= 4.746368004971748E+03 RG= 1.422925330783036E+09 RR=-5.276060564528440E-01
2461054.500000000 = A.D. 2026-Jan-14 00:00:00.0000 TDB 
 X = 1.420891553172315E+09 Y = 4.855050317773981E+07 Z =-5.741788406938430E+07
 VX=-8.628763366538007E-01 VY= 9.633043470650861E+00 VZ=-1.331712624666279E-01
 LT= 4.746215949411661E+03 RG= 1.422879745672925E+09 RR=-5.276047963461554E-01
2461055.500000000 = A.D. 2026-Jan-15 00:00:00.0000 TDB 
 X = 1.420816756366512E+09 Y = 4.938278966045336E+07 Z =-5.742938019414292E+07
 VX=-8.685312463884990E-01 VY= 9.632846777597743E+00 VZ=-1.329427252675899E-01
 LT= 4.746063894240151E+03 RG= 1.422834160679307E+09 RR=-5.276033598851344E-01
2461056.500000000 = A.D. 2026-Jan-16 00:00:00.0000 TDB 
 X = 1.420741470965829E+09 Y = 5.021505900494358E+07 Z =-5.744085657035748E+07
 VX=-8.741864029749838E-01 VY= 9.632646752422893E+00 VZ=-1.327141202541635E-01
 LT= 4.745911839508043E+03 RG= 1.422788575817417E+09 RR=-5.276017470386706E-01
2461057.500000000 = A.D. 2026-Jan-17 00:00:00.0000 TDB 
 X = 1.420665696949024E+09 Y = 5.104731092329054E+07 Z =-5.745231319217171E+07
 VX=-8.798418044804047E-01 VY= 9.632443394557175E+00 VZ=-1.324854474932606E-01
 LT= 4.745759785266177E+03 RG= 1.422742991102499E+09 RR=-5.275999577756616E-01
2461058.500000000 = A.D. 2026-Jan-18 00:00:00.0000 TDB 
 X = 1.420589434295017E+09 Y = 5.187954512752520E+07 Z =-5.746375005373512E+07
 VX=-8.854974489710468E-01 VY= 9.632236703432506E+00 VZ=-1.322567070518446E-01
 LT= 4.745607731565400E+03 RG= 1.422697406549795E+09 RR=-5.275979920650118E-01
2461059.500000000 = A.D. 2026-Jan-19 00:00:00.0000 TDB 
 X = 1.420512682982899E+09 Y = 5.271176132962950E+07 Z =-5.747516714920300E+07
 VX=-8.911533345123274E-01 VY= 9.632026678481887E+00 VZ=-1.320278989969341E-01
 LT= 4.745455678456571E+03 RG= 1.422651822174553E+09 RR=-5.275958498756290E-01
2461060.500000000 = A.D. 2026-Jan-20 00:00:00.0000 TDB 
 X = 1.420435442991927E+09 Y = 5.354395924153639E+07 Z =-5.748656447273645E+07
 VX=-8.968094591687960E-01 VY= 9.631813319139383E+00 VZ=-1.317990233955957E-01
 LT= 4.745303625990553E+03 RG= 1.422606237992020E+09 RR=-5.275935311764238E-01
2461061.500000000 = A.D. 2026-Jan-21 00:00:00.0000 TDB 
 X = 1.420357714301524E+09 Y = 5.437613857513003E+07 Z =-5.749794201850235E+07
 VX=-9.024658210041315E-01 VY= 9.631596624840133E+00 VZ=-1.315700803149520E-01
 LT= 4.745151574218221E+03 RG= 1.422560654017450E+09 RR=-5.275910359363064E-01
2461062.500000000 = A.D. 2026-Jan-22 00:00:00.0000 TDB 
 X = 1.420279496891283E+09 Y = 5.520829904224576E+07 Z =-5.750929978067340E+07
 VX=-9.081224180811406E-01 VY= 9.631376595020349E+00 VZ=-1.313410698221773E-01
 LT= 4.744999523190460E+03 RG= 1.422515070266096E+09 RR=-5.275883641241847E-01
2461063.500000000 = A.D. 2026-Jan-23 00:00:00.0000 TDB 
 X = 1.420200790740961E+09 Y = 5.604044035467035E+07 Z =-5.752063775342809E+07
 VX=-9.137792484617553E-01 VY= 9.631153229117317E+00 VZ=-1.311119919845001E-01
 LT= 4.744847472958160E+03 RG= 1.422469486753215E+09 RR=-5.275855157089602E-01
2461064.500000000 = A.D. 2026-Jan-24 00:00:00.0000 TDB 
 X = 1.420121595830485E+09 Y = 5.687256222414188E+07 Z =-5.753195593095073E+07
 VX=-9.194363102070331E-01 VY= 9.630926526569391E+00 VZ=-1.308828468691980E-01
 LT= 4.744695423572225E+03 RG= 1.422423903494068E+09 RR=-5.275824906595306E-01
2461065.500000000 = A.D. 2026-Jan-25 00:00:00.0000 TDB 
 X = 1.420041912139950E+09 Y = 5.770466436235001E+07 Z =-5.754325430743143E+07
 VX=-9.250936013771527E-01 VY= 9.630696486815999E+00 VZ=-1.306536345436053E-01
 LT= 4.744543375083565E+03 RG= 1.422378320503918E+09 RR=-5.275792889447823E-01
2461066.500000000 = A.D. 2026-Jan-26 00:00:00.0000 TDB 
 X = 1.419961739649616E+09 Y = 5.853674648093604E+07 Z =-5.755453287706615E+07
 VX=-9.307511200314135E-01 VY= 9.630463109297642E+00 VZ=-1.304243550751076E-01
 LT= 4.744391327543097E+03 RG= 1.422332737798028E+09 RR=-5.275759105335913E-01
2461067.500000000 = A.D. 2026-Jan-27 00:00:00.0000 TDB 
 X = 1.419881078339912E+09 Y = 5.936880829149292E+07 Z =-5.756579163405664E+07
 VX=-9.364088642282350E-01 VY= 9.630226393455894E+00 VZ=-1.301950085311421E-01
 LT= 4.744239281001749E+03 RG= 1.422287155391667E+09 RR=-5.275723553948218E-01
2461068.500000000 = A.D. 2026-Jan-28 00:00:00.0000 TDB 
 X = 1.419799928191437E+09 Y = 6.020084950556546E+07 Z =-5.757703057261050E+07
 VX=-9.420668320251520E-01 VY= 9.629986338733401E+00 VZ=-1.299655949792036E-01
 LT= 4.744087235510461E+03 RG= 1.422241573300106E+09 RR=-5.275686234973199E-01
2461069.500000000 = A.D. 2026-Jan-29 00:00:00.0000 TDB 
 X = 1.419718289184955E+09 Y = 6.103286983465029E+07 Z =-5.758824968694116E+07
 VX=-9.477250214788159E-01 VY= 9.629742944573884E+00 VZ=-1.297361144868341E-01
 LT= 4.743935191120180E+03 RG= 1.422195991538619E+09 RR=-5.275647148099165E-01
2461070.500000000 = A.D. 2026-Jan-30 00:00:00.0000 TDB 
 X = 1.419636161301398E+09 Y = 6.186486899019605E+07 Z =-5.759944897126789E+07
 VX=-9.533834306449903E-01 VY= 9.629496210422142E+00 VZ=-1.295065671216356E-01
 LT= 4.743783147881858E+03 RG= 1.422150410122480E+09 RR=-5.275606293014214E-01
2461071.500000000 = A.D. 2026-Jan-31 00:00:00.0000 TDB 
 X = 1.419553544521868E+09 Y = 6.269684668360348E+07 Z =-5.761062841981579E+07
 VX=-9.590420575785517E-01 VY= 9.629246135724031E+00 VZ=-1.292769529512552E-01
 LT= 4.743631105846461E+03 RG= 1.422104829066968E+09 RR=-5.275563669406234E-01
2461072.500000000 = A.D. 2026-Feb-01 00:00:00.0000 TDB 
 X = 1.419470438827633E+09 Y = 6.352880262622550E+07 Z =-5.762178802681582E+07
 VX=-9.647009003334853E-01 VY= 9.628992719926504E+00 VZ=-1.290472720434011E-01
 LT= 4.743479065064960E+03 RG= 1.422059248387366E+09 RR=-5.275519276962869E-01
